0 FENGYUN 1C DEB
1 30252U 99025XM  13282.55006208  .00000821  00000-0  53005-3 0  7545
2 30252 099.1025 286.7642 0072101 085.9343 031.0589 14.04491564344485
0 FENGYUN 1C DEB
1 30252U 99025XM  13283.83340543  .00000807  00000-0  52178-3 0  7555
2 30252 099.1025 288.0506 0072104 082.4000 039.8342 14.04494429344660
0 FENGYUN 1C DEB
1 30252U 99025XM  13285.54210859  .00000659  00000-0  43086-3 0  7565
2 30252 099.1024 289.7636 0072082 077.7232 039.2788 14.04497914344907
0 FENGYUN 1C DEB
1 30252U 99025XM  13286.61181059  .00000668  00000-0  43675-3 0  7578
2 30252 099.1023 290.8359 0072093 074.7823 047.8687 14.04499757345053
0 FENGYUN 1C DEB
1 30252U 99025XM  13287.82305618  .00000626  00000-0  41066-3 0  7588
2 30252 099.1022 292.0500 0072121 071.4417 052.1448 14.04502997345223
0 FENGYUN 1C DEB
1 30252U 99025XM  13288.95021931  .00000551  00000-0  36488-3 0  7596
2 30252 099.1023 293.1799 0072108 068.3521 351.2772 14.04505659345380
0 FENGYUN 1C DEB
1 30252U 99025XM  13290.01945444  .00000524  00000-0  34817-3 0  7606
2 30252 099.1023 294.2514 0072116 065.4203 357.5283 14.04507217345536
0 FENGYUN 1C DEB
1 30252U 99025XM  13291.52663737  .00000426  00000-0  28853-3 0  7610
2 30252 099.1025 295.7622 0072106 061.2804 058.1432 14.04509511345746
0 FENGYUN 1C DEB
1 30252U 99025XM  13292.59590959  .00000498  00000-0  33214-3 0  7620
2 30252 099.1025 296.8340 0072095 058.3575 064.5906 14.04510317345893
0 FENGYUN 1C DEB
1 30252U 99025XM  13293.93765227  .00000471  00000-0  31596-3 0  7634
2 30252 099.1025 298.1789 0072046 054.6694 008.7265 14.04512188346080
0 FENGYUN 1C DEB
1 30252U 99025XM  13295.51660611  .00000509  00000-0  33902-3 0  7647
2 30252 099.1024 299.7616 0071976 050.3350 072.2567 14.04514134346307
